{
"type": "FeatureCollection",
"name": "file119fa6ca76905",
"crs": { "type": "name", "properties": { "name": "urn:ogc:def:crs:OGC:1.3:CRS84" } },
"features": [
{ "type": "Feature", "properties": { "logzinc": 6.9295167707636498, "dist": 0.00135803, "ffreq2": 0, "ffreq3": 0 }, "geometry": { "type": "Point", "coordinates": [ 5.758536, 50.991562 ] } },
{ "type": "Feature", "properties": { "logzinc": 7.0396603498620758, "dist": 0.0122243, "ffreq2": 0, "ffreq3": 0 }, "geometry": { "type": "Point", "coordinates": [ 5.757863, 50.991088 ] } },
{ "type": "Feature", "properties": { "logzinc": 6.4614681763537174, "dist": 0.103029, "ffreq2": 0, "ffreq3": 0 }, "geometry": { "type": "Point", "coordinates": [ 5.759855, 50.990893 ] } },
{ "type": "Feature", "properties": { "logzinc": 5.5490760848952201, "dist": 0.190094, "ffreq2": 0, "ffreq3": 0 }, "geometry": { "type": "Point", "coordinates": [ 5.761746, 50.99041 ] } },
{ "type": "Feature", "properties": { "logzinc": 5.5947113796018391, "dist": 0.27709, "ffreq2": 0, "ffreq3": 0 }, "geometry": { "type": "Point", "coordinates": [ 5.761863, 50.989026 ] } },
{ "type": "Feature", "properties": { "logzinc": 5.6383546693337454, "dist": 0.364067, "ffreq2": 0, "ffreq3": 0 }, "geometry": { "type": "Point", "coordinates": [ 5.76304, 50.988393 ] } },
{ "type": "Feature", "properties": { "logzinc": 5.8464387750577247, "dist": 0.190094, "ffreq2": 0, "ffreq3": 0 }, "geometry": { "type": "Point", "coordinates": [ 5.759843, 50.989392 ] } },
{ "type": "Feature", "properties": { "logzinc": 6.0063531596017325, "dist": 0.0921516, "ffreq2": 0, "ffreq3": 0 }, "geometry": { "type": "Point", "coordinates": [ 5.757877, 50.989335 ] } },
{ "type": "Feature", "properties": { "logzinc": 5.8493247799468593, "dist": 0.184614, "ffreq2": 0, "ffreq3": 0 }, "geometry": { "type": "Point", "coordinates": [ 5.758338, 50.988147 ] } },
{ "type": "Feature", "properties": { "logzinc": 5.2094861528414214, "dist": 0.309702, "ffreq2": 0, "ffreq3": 0 }, "geometry": { "type": "Point", "coordinates": [ 5.760783, 50.987573 ] } },
{ "type": "Feature", "properties": { "logzinc": 5.2417470150596426, "dist": 0.315116, "ffreq2": 0, "ffreq3": 0 }, "geometry": { "type": "Point", "coordinates": [ 5.760195, 50.987098 ] } },
{ "type": "Feature", "properties": { "logzinc": 5.5254529391317835, "dist": 0.228123, "ffreq2": 0, "ffreq3": 0 }, "geometry": { "type": "Point", "coordinates": [ 5.757925, 50.986351 ] } },
{ "type": "Feature", "properties": { "logzinc": 6.9994224675079613, "dist": 0.0, "ffreq2": 0, "ffreq3": 0 }, "geometry": { "type": "Point", "coordinates": [ 5.755697, 50.989126 ] } },
{ "type": "Feature", "properties": { "logzinc": 6.2225762680713688, "dist": 0.113932, "ffreq2": 0, "ffreq3": 0 }, "geometry": { "type": "Point", "coordinates": [ 5.757043, 50.98834 ] } },
{ "type": "Feature", "properties": { "logzinc": 5.7868973813667077, "dist": 0.168336, "ffreq2": 0, "ffreq3": 0 }, "geometry": { "type": "Point", "coordinates": [ 5.757635, 50.98752 ] } },
{ "type": "Feature", "properties": { "logzinc": 6.9392539460415081, "dist": 0.0, "ffreq2": 0, "ffreq3": 0 }, "geometry": { "type": "Point", "coordinates": [ 5.755063, 50.988292 ] } },
{ "type": "Feature", "properties": { "logzinc": 6.4068799860693142, "dist": 0.0122243, "ffreq2": 0, "ffreq3": 0 }, "geometry": { "type": "Point", "coordinates": [ 5.754099, 50.987019 ] } },
{ "type": "Feature", "properties": { "logzinc": 6.5666724298032406, "dist": 0.0122243, "ffreq2": 0, "ffreq3": 0 }, "geometry": { "type": "Point", "coordinates": [ 5.753107, 50.985836 ] } },
{ "type": "Feature", "properties": { "logzinc": 6.5998704992128365, "dist": 0.0, "ffreq2": 0, "ffreq3": 0 }, "geometry": { "type": "Point", "coordinates": [ 5.752116, 50.984715 ] } },
{ "type": "Feature", "properties": { "logzinc": 6.9584483932976555, "dist": 0.0, "ffreq2": 0, "ffreq3": 0 }, "geometry": { "type": "Point", "coordinates": [ 5.751109, 50.98346 ] } },
{ "type": "Feature", "properties": { "logzinc": 6.5117453296447279, "dist": 0.0703468, "ffreq2": 0, "ffreq3": 0 }, "geometry": { "type": "Point", "coordinates": [ 5.752348, 50.983465 ] } },
{ "type": "Feature", "properties": { "logzinc": 5.9964520886190211, "dist": 0.0975136, "ffreq2": 0, "ffreq3": 0 }, "geometry": { "type": "Point", "coordinates": [ 5.753231, 50.983543 ] } },
{ "type": "Feature", "properties": { "logzinc": 5.8377304471659395, "dist": 0.113932, "ffreq2": 0, "ffreq3": 0 }, "geometry": { "type": "Point", "coordinates": [ 5.753227, 50.983067 ] } },
{ "type": "Feature", "properties": { "logzinc": 5.3844950627890888, "dist": 0.342321, "ffreq2": 0, "ffreq3": 0 }, "geometry": { "type": "Point", "coordinates": [ 5.75964, 50.985392 ] } },
{ "type": "Feature", "properties": { "logzinc": 5.2983173665480363, "dist": 0.385804, "ffreq2": 0, "ffreq3": 0 }, "geometry": { "type": "Point", "coordinates": [ 5.759547, 50.984476 ] } },
{ "type": "Feature", "properties": { "logzinc": 5.2678581590633282, "dist": 0.429289, "ffreq2": 0, "ffreq3": 0 }, "geometry": { "type": "Point", "coordinates": [ 5.759829, 50.98407 ] } },
{ "type": "Feature", "properties": { "logzinc": 5.3327187932653688, "dist": 0.315116, "ffreq2": 0, "ffreq3": 0 }, "geometry": { "type": "Point", "coordinates": [ 5.757565, 50.984069 ] } },
{ "type": "Feature", "properties": { "logzinc": 5.1929568508902104, "dist": 0.320574, "ffreq2": 0, "ffreq3": 0 }, "geometry": { "type": "Point", "coordinates": [ 5.75706, 50.983261 ] } },
{ "type": "Feature", "properties": { "logzinc": 5.4806389233419912, "dist": 0.249863, "ffreq2": 0, "ffreq3": 0 }, "geometry": { "type": "Point", "coordinates": [ 5.756253, 50.983857 ] } },
{ "type": "Feature", "properties": { "logzinc": 5.1929568508902104, "dist": 0.489064, "ffreq2": 0, "ffreq3": 0 }, "geometry": { "type": "Point", "coordinates": [ 5.762476, 50.985572 ] } },
{ "type": "Feature", "properties": { "logzinc": 5.3375380797013179, "dist": 0.472778, "ffreq2": 0, "ffreq3": 0 }, "geometry": { "type": "Point", "coordinates": [ 5.75933, 50.982202 ] } },
{ "type": "Feature", "properties": { "logzinc": 5.2882670306945352, "dist": 0.287957, "ffreq2": 0, "ffreq3": 0 }, "geometry": { "type": "Point", "coordinates": [ 5.755693, 50.981486 ] } },
{ "type": "Feature", "properties": { "logzinc": 5.521460917862246, "dist": 0.271622, "ffreq2": 0, "ffreq3": 0 }, "geometry": { "type": "Point", "coordinates": [ 5.754992, 50.981137 ] } },
{ "type": "Feature", "properties": { "logzinc": 5.2574953720277815, "dist": 0.385807, "ffreq2": 0, "ffreq3": 0 }, "geometry": { "type": "Point", "coordinates": [ 5.756768, 50.980673 ] } },
{ "type": "Feature", "properties": { "logzinc": 5.3612921657094255, "dist": 0.418417, "ffreq2": 0, "ffreq3": 0 }, "geometry": { "type": "Point", "coordinates": [ 5.756791, 50.979945 ] } },
{ "type": "Feature", "properties": { "logzinc": 5.7714411231300158, "dist": 0.244474, "ffreq2": 0, "ffreq3": 0 }, "geometry": { "type": "Point", "coordinates": [ 5.753289, 50.980064 ] } },
{ "type": "Feature", "properties": { "logzinc": 6.3438804341263308, "dist": 0.135709, "ffreq2": 0, "ffreq3": 0 }, "geometry": { "type": "Point", "coordinates": [ 5.752187, 50.981101 ] } },
{ "type": "Feature", "properties": { "logzinc": 6.7250336421668431, "dist": 0.0484965, "ffreq2": 0, "ffreq3": 0 }, "geometry": { "type": "Point", "coordinates": [ 5.750741, 50.981942 ] } },
{ "type": "Feature", "properties": { "logzinc": 6.8090393060429797, "dist": 0.0, "ffreq2": 0, "ffreq3": 0 }, "geometry": { "type": "Point", "coordinates": [ 5.750003, 50.982304 ] } },
{ "type": "Feature", "properties": { "logzinc": 7.2820736580934646, "dist": 0.00135803, "ffreq2": 0, "ffreq3": 0 }, "geometry": { "type": "Point", "coordinates": [ 5.748643, 50.981391 ] } },
{ "type": "Feature", "properties": { "logzinc": 5.6970934865054046, "dist": 0.135709, "ffreq2": 0, "ffreq3": 0 }, "geometry": { "type": "Point", "coordinates": [ 5.750213, 50.980074 ] } },
{ "type": "Feature", "properties": { "logzinc": 5.1179938124167554, "dist": 0.26622, "ffreq2": 0, "ffreq3": 0 }, "geometry": { "type": "Point", "coordinates": [ 5.751158, 50.978839 ] } },
{ "type": "Feature", "properties": { "logzinc": 5.1704839950381514, "dist": 0.211843, "ffreq2": 0, "ffreq3": 0 }, "geometry": { "type": "Point", "coordinates": [ 5.74959, 50.978682 ] } },
{ "type": "Feature", "properties": { "logzinc": 5.5529595849216173, "dist": 0.320572, "ffreq2": 0, "ffreq3": 0 }, "geometry": { "type": "Point", "coordinates": [ 5.748996, 50.97739 ] } },
{ "type": "Feature", "properties": { "logzinc": 6.6147256002037604, "dist": 0.081222, "ffreq2": 0, "ffreq3": 0 }, "geometry": { "type": "Point", "coordinates": [ 5.748232, 50.979801 ] } },
{ "type": "Feature", "properties": { "logzinc": 6.6147256002037604, "dist": 0.190086, "ffreq2": 0, "ffreq3": 0 }, "geometry": { "type": "Point", "coordinates": [ 5.747325, 50.978528 ] } },
{ "type": "Feature", "properties": { "logzinc": 6.1398845522262553, "dist": 0.287941, "ffreq2": 0, "ffreq3": 0 }, "geometry": { "type": "Point", "coordinates": [ 5.747187, 50.977243 ] } },
{ "type": "Feature", "properties": { "logzinc": 5.8998973535824915, "dist": 0.423826, "ffreq2": 0, "ffreq3": 0 }, "geometry": { "type": "Point", "coordinates": [ 5.747162, 50.975868 ] } },
{ "type": "Feature", "properties": { "logzinc": 5.6419070709381138, "dist": 0.554289, "ffreq2": 0, "ffreq3": 0 }, "geometry": { "type": "Point", "coordinates": [ 5.74698, 50.974484 ] } },
{ "type": "Feature", "properties": { "logzinc": 5.9269260259704106, "dist": 0.603225, "ffreq2": 0, "ffreq3": 0 }, "geometry": { "type": "Point", "coordinates": [ 5.745961, 50.973444 ] } },
{ "type": "Feature", "properties": { "logzinc": 5.4026773818722793, "dist": 0.614071, "ffreq2": 0, "ffreq3": 0 }, "geometry": { "type": "Point", "coordinates": [ 5.745047, 50.973097 ] } },
{ "type": "Feature", "properties": { "logzinc": 6.6995003401616779, "dist": 0.00135803, "ffreq2": 0, "ffreq3": 0 }, "geometry": { "type": "Point", "coordinates": [ 5.746556, 50.980274 ] } },
{ "type": "Feature", "properties": { "logzinc": 7.3447190541496727, "dist": 0.0, "ffreq2": 0, "ffreq3": 0 }, "geometry": { "type": "Point", "coordinates": [ 5.744644, 50.979794 ] } },
{ "type": "Feature", "properties": { "logzinc": 7.5169772246043207, "dist": 0.0054321, "ffreq2": 0, "ffreq3": 0 }, "geometry": { "type": "Point", "coordinates": [ 5.74279, 50.979423 ] } },
{ "type": "Feature", "properties": { "logzinc": 7.3317149697264661, "dist": 0.0054321, "ffreq2": 0, "ffreq3": 0 }, "geometry": { "type": "Point", "coordinates": [ 5.740694, 50.979088 ] } },
{ "type": "Feature", "properties": { "logzinc": 6.8384052008473439, "dist": 0.0054321, "ffreq2": 0, "ffreq3": 0 }, "geometry": { "type": "Point", "coordinates": [ 5.738711, 50.97859 ] } },
{ "type": "Feature", "properties": { "logzinc": 6.0684255882441107, "dist": 0.146578, "ffreq2": 0, "ffreq3": 0 }, "geometry": { "type": "Point", "coordinates": [ 5.740197, 50.977453 ] } },
{ "type": "Feature", "properties": { "logzinc": 6.3099182782265162, "dist": 0.135684, "ffreq2": 0, "ffreq3": 0 }, "geometry": { "type": "Point", "coordinates": [ 5.741769, 50.978149 ] } },
{ "type": "Feature", "properties": { "logzinc": 7.3594676382556212, "dist": 0.0703333, "ffreq2": 0, "ffreq3": 0 }, "geometry": { "type": "Point", "coordinates": [ 5.744595, 50.97904 ] } },
{ "type": "Feature", "properties": { "logzinc": 7.0817085861055746, "dist": 0.0484831, "ffreq2": 0, "ffreq3": 0 }, "geometry": { "type": "Point", "coordinates": [ 5.737522, 50.977677 ] } },
{ "type": "Feature", "properties": { "logzinc": 6.8101424501151362, "dist": 0.0054321, "ffreq2": 0, "ffreq3": 0 }, "geometry": { "type": "Point", "coordinates": [ 5.736403, 50.976575 ] } },
{ "type": "Feature", "properties": { "logzinc": 6.6346333578616861, "dist": 0.0054321, "ffreq2": 0, "ffreq3": 0 }, "geometry": { "type": "Point", "coordinates": [ 5.735951, 50.975084 ] } },
{ "type": "Feature", "properties": { "logzinc": 6.4907235345025072, "dist": 0.0316663, "ffreq2": 0, "ffreq3": 0 }, "geometry": { "type": "Point", "coordinates": [ 5.735856, 50.973853 ] } },
{ "type": "Feature", "properties": { "logzinc": 6.4661447242376191, "dist": 0.0122243, "ffreq2": 0, "ffreq3": 0 }, "geometry": { "type": "Point", "coordinates": [ 5.734779, 50.972606 ] } },
{ "type": "Feature", "properties": { "logzinc": 6.6858609470683596, "dist": 0.0122243, "ffreq2": 0, "ffreq3": 0 }, "geometry": { "type": "Point", "coordinates": [ 5.733631, 50.971459 ] } },
{ "type": "Feature", "properties": { "logzinc": 6.6644090203504076, "dist": 0.0373395, "ffreq2": 0, "ffreq3": 0 }, "geometry": { "type": "Point", "coordinates": [ 5.7325, 50.970546 ] } },
{ "type": "Feature", "properties": { "logzinc": 6.9660241871061128, "dist": 0.211846, "ffreq2": 0, "ffreq3": 0 }, "geometry": { "type": "Point", "coordinates": [ 5.735551, 50.969287 ] } },
{ "type": "Feature", "properties": { "logzinc": 4.7791234931115296, "dist": 0.451037, "ffreq2": 0, "ffreq3": 0 }, "geometry": { "type": "Point", "coordinates": [ 5.738698, 50.967552 ] } },
{ "type": "Feature", "properties": { "logzinc": 6.6567265241783913, "dist": 0.575877, "ffreq2": 0, "ffreq3": 0 }, "geometry": { "type": "Point", "coordinates": [ 5.740967, 50.966358 ] } },
{ "type": "Feature", "properties": { "logzinc": 6.5553568918106651, "dist": 0.0756869, "ffreq2": 0, "ffreq3": 0 }, "geometry": { "type": "Point", "coordinates": [ 5.730842, 50.967773 ] } },
{ "type": "Feature", "properties": { "logzinc": 6.5161930760429643, "dist": 0.12481, "ffreq2": 0, "ffreq3": 0 }, "geometry": { "type": "Point", "coordinates": [ 5.730665, 50.966983 ] } },
{ "type": "Feature", "properties": { "logzinc": 6.6758232216348476, "dist": 0.103024, "ffreq2": 0, "ffreq3": 0 }, "geometry": { "type": "Point", "coordinates": [ 5.729768, 50.966958 ] } },
{ "type": "Feature", "properties": { "logzinc": 6.5294188382622256, "dist": 0.157469, "ffreq2": 0, "ffreq3": 0 }, "geometry": { "type": "Point", "coordinates": [ 5.728933, 50.965729 ] } },
{ "type": "Feature", "properties": { "logzinc": 6.3851943989977258, "dist": 0.200976, "ffreq2": 0, "ffreq3": 0 }, "geometry": { "type": "Point", "coordinates": [ 5.730402, 50.966004 ] } },
{ "type": "Feature", "properties": { "logzinc": 6.3080984415095305, "dist": 0.200976, "ffreq2": 0, "ffreq3": 0 }, "geometry": { "type": "Point", "coordinates": [ 5.729284, 50.964991 ] } },
{ "type": "Feature", "properties": { "logzinc": 6.522092798170152, "dist": 0.26622, "ffreq2": 0, "ffreq3": 0 }, "geometry": { "type": "Point", "coordinates": [ 5.73018, 50.964908 ] } },
{ "type": "Feature", "properties": { "logzinc": 6.2897155709089976, "dist": 0.298835, "ffreq2": 0, "ffreq3": 0 }, "geometry": { "type": "Point", "coordinates": [ 5.729645, 50.963777 ] } },
{ "type": "Feature", "properties": { "logzinc": 6.3279367837291947, "dist": 0.0812247, "ffreq2": 0, "ffreq3": 0 }, "geometry": { "type": "Point", "coordinates": [ 5.726125, 50.965189 ] } },
{ "type": "Feature", "properties": { "logzinc": 7.035268599281097, "dist": 0.070355, "ffreq2": 0, "ffreq3": 0 }, "geometry": { "type": "Point", "coordinates": [ 5.727585, 50.966201 ] } },
{ "type": "Feature", "properties": { "logzinc": 7.2320103316647586, "dist": 0.0122243, "ffreq2": 0, "ffreq3": 0 }, "geometry": { "type": "Point", "coordinates": [ 5.728576, 50.967501 ] } },
{ "type": "Feature", "properties": { "logzinc": 7.0570369816978911, "dist": 0.0, "ffreq2": 0, "ffreq3": 0 }, "geometry": { "type": "Point", "coordinates": [ 5.729934, 50.968225 ] } },
{ "type": "Feature", "properties": { "logzinc": 7.4217757936446471, "dist": 0.0537723, "ffreq2": 0, "ffreq3": 0 }, "geometry": { "type": "Point", "coordinates": [ 5.745192, 50.962318 ] } },
{ "type": "Feature", "properties": { "logzinc": 6.6398758338265358, "dist": 0.0593662, "ffreq2": 0, "ffreq3": 0 }, "geometry": { "type": "Point", "coordinates": [ 5.731867, 50.969748 ] } },
{ "type": "Feature", "properties": { "logzinc": 5.6312117818213654, "dist": 0.211843, "ffreq2": 0, "ffreq3": 0 }, "geometry": { "type": "Point", "coordinates": [ 5.759163, 50.987992 ] } },
{ "type": "Feature", "properties": { "logzinc": 5.4847969334906548, "dist": 0.12481, "ffreq2": 1, "ffreq3": 0 }, "geometry": { "type": "Point", "coordinates": [ 5.73562, 50.970896 ] } },
{ "type": "Feature", "properties": { "logzinc": 5.7589017738772803, "dist": 0.12481, "ffreq2": 1, "ffreq3": 0 }, "geometry": { "type": "Point", "coordinates": [ 5.736838, 50.971962 ] } },
{ "type": "Feature", "properties": { "logzinc": 6.300785794663244, "dist": 0.0921516, "ffreq2": 1, "ffreq3": 0 }, "geometry": { "type": "Point", "coordinates": [ 5.729157, 50.967041 ] } },
{ "type": "Feature", "properties": { "logzinc": 6.2245584292753602, "dist": 0.113941, "ffreq2": 1, "ffreq3": 0 }, "geometry": { "type": "Point", "coordinates": [ 5.728166, 50.965867 ] } },
{ "type": "Feature", "properties": { "logzinc": 6.0402547112774139, "dist": 0.179216, "ffreq2": 1, "ffreq3": 0 }, "geometry": { "type": "Point", "coordinates": [ 5.727041, 50.963838 ] } },
{ "type": "Feature", "properties": { "logzinc": 5.8051349689164882, "dist": 0.233596, "ffreq2": 1, "ffreq3": 0 }, "geometry": { "type": "Point", "coordinates": [ 5.726005, 50.96234 ] } },
{ "type": "Feature", "properties": { "logzinc": 5.9914645471079817, "dist": 0.336861, "ffreq2": 1, "ffreq3": 0 }, "geometry": { "type": "Point", "coordinates": [ 5.729224, 50.962735 ] } },
{ "type": "Feature", "properties": { "logzinc": 6.315358001522335, "dist": 0.070355, "ffreq2": 1, "ffreq3": 0 }, "geometry": { "type": "Point", "coordinates": [ 5.72319, 50.962861 ] } },
{ "type": "Feature", "properties": { "logzinc": 6.3578422665080998, "dist": 0.0593662, "ffreq2": 1, "ffreq3": 0 }, "geometry": { "type": "Point", "coordinates": [ 5.724567, 50.964214 ] } },
{ "type": "Feature", "properties": { "logzinc": 5.0434251169192468, "dist": 0.255341, "ffreq2": 1, "ffreq3": 0 }, "geometry": { "type": "Point", "coordinates": [ 5.736587, 50.961374 ] } },
{ "type": "Feature", "properties": { "logzinc": 5.4116460518550396, "dist": 0.364067, "ffreq2": 1, "ffreq3": 0 }, "geometry": { "type": "Point", "coordinates": [ 5.733082, 50.960791 ] } },
{ "type": "Feature", "properties": { "logzinc": 5.1929568508902104, "dist": 0.429295, "ffreq2": 1, "ffreq3": 0 }, "geometry": { "type": "Point", "coordinates": [ 5.734588, 50.964274 ] } },
{ "type": "Feature", "properties": { "logzinc": 5.4205349992722862, "dist": 0.380328, "ffreq2": 1, "ffreq3": 0 }, "geometry": { "type": "Point", "coordinates": [ 5.735413, 50.966061 ] } },
{ "type": "Feature", "properties": { "logzinc": 5.2257466737132017, "dist": 0.249874, "ffreq2": 1, "ffreq3": 0 }, "geometry": { "type": "Point", "coordinates": [ 5.733009, 50.966347 ] } },
{ "type": "Feature", "properties": { "logzinc": 5.2882670306945352, "dist": 0.266212, "ffreq2": 1, "ffreq3": 0 }, "geometry": { "type": "Point", "coordinates": [ 5.731395, 50.965569 ] } },
{ "type": "Feature", "properties": { "logzinc": 5.2311086168545868, "dist": 0.451037, "ffreq2": 1, "ffreq3": 0 }, "geometry": { "type": "Point", "coordinates": [ 5.731744, 50.962764 ] } },
{ "type": "Feature", "properties": { "logzinc": 5.2933048247244923, "dist": 0.30971, "ffreq2": 1, "ffreq3": 0 }, "geometry": { "type": "Point", "coordinates": [ 5.737612, 50.963285 ] } },
{ "type": "Feature", "properties": { "logzinc": 5.0562458053483077, "dist": 0.293359, "ffreq2": 1, "ffreq3": 0 }, "geometry": { "type": "Point", "coordinates": [ 5.739952, 50.964015 ] } },
{ "type": "Feature", "properties": { "logzinc": 5.3132059790417872, "dist": 0.532351, "ffreq2": 1, "ffreq3": 0 }, "geometry": { "type": "Point", "coordinates": [ 5.742787, 50.966101 ] } },
{ "type": "Feature", "properties": { "logzinc": 4.962844630259907, "dist": 0.619513, "ffreq2": 1, "ffreq3": 0 }, "geometry": { "type": "Point", "coordinates": [ 5.744054, 50.969801 ] } },
{ "type": "Feature", "properties": { "logzinc": 4.9126548857360524, "dist": 0.684725, "ffreq2": 1, "ffreq3": 0 }, "geometry": { "type": "Point", "coordinates": [ 5.74542, 50.971612 ] } },
{ "type": "Feature", "properties": { "logzinc": 4.7621739347977563, "dist": 0.809742, "ffreq2": 1, "ffreq3": 0 }, "geometry": { "type": "Point", "coordinates": [ 5.749541, 50.972372 ] } },
{ "type": "Feature", "properties": { "logzinc": 4.7273878187123408, "dist": 0.880389, "ffreq2": 1, "ffreq3": 0 }, "geometry": { "type": "Point", "coordinates": [ 5.747768, 50.969546 ] } },
{ "type": "Feature", "properties": { "logzinc": 4.8675344504555822, "dist": 0.749591, "ffreq2": 1, "ffreq3": 0 }, "geometry": { "type": "Point", "coordinates": [ 5.747014, 50.967796 ] } },
{ "type": "Feature", "properties": { "logzinc": 5.2574953720277815, "dist": 0.575752, "ffreq2": 1, "ffreq3": 0 }, "geometry": { "type": "Point", "coordinates": [ 5.744696, 50.966365 ] } },
{ "type": "Feature", "properties": { "logzinc": 5.4806389233419912, "dist": 0.581484, "ffreq2": 1, "ffreq3": 0 }, "geometry": { "type": "Point", "coordinates": [ 5.741387, 50.967355 ] } },
{ "type": "Feature", "properties": { "logzinc": 5.3981627015177525, "dist": 0.49452, "ffreq2": 1, "ffreq3": 0 }, "geometry": { "type": "Point", "coordinates": [ 5.739865, 50.96744 ] } },
{ "type": "Feature", "properties": { "logzinc": 4.9416424226093039, "dist": 0.32058, "ffreq2": 1, "ffreq3": 0 }, "geometry": { "type": "Point", "coordinates": [ 5.738215, 50.969504 ] } },
{ "type": "Feature", "properties": { "logzinc": 4.8520302639196169, "dist": 0.336851, "ffreq2": 1, "ffreq3": 0 }, "geometry": { "type": "Point", "coordinates": [ 5.739275, 50.970355 ] } },
{ "type": "Feature", "properties": { "logzinc": 5.1119877883565437, "dist": 0.249852, "ffreq2": 1, "ffreq3": 0 }, "geometry": { "type": "Point", "coordinates": [ 5.739089, 50.972117 ] } },
{ "type": "Feature", "properties": { "logzinc": 5.2522734280466299, "dist": 0.0756869, "ffreq2": 1, "ffreq3": 0 }, "geometry": { "type": "Point", "coordinates": [ 5.73523, 50.971958 ] } },
{ "type": "Feature", "properties": { "logzinc": 5.4467373716663099, "dist": 0.0756869, "ffreq2": 1, "ffreq3": 0 }, "geometry": { "type": "Point", "coordinates": [ 5.73635, 50.97324 ] } },
{ "type": "Feature", "properties": { "logzinc": 5.3132059790417872, "dist": 0.162853, "ffreq2": 1, "ffreq3": 0 }, "geometry": { "type": "Point", "coordinates": [ 5.738069, 50.974718 ] } },
{ "type": "Feature", "properties": { "logzinc": 6.5820251388928259, "dist": 0.0974916, "ffreq2": 1, "ffreq3": 0 }, "geometry": { "type": "Point", "coordinates": [ 5.747612, 50.962428 ] } },
{ "type": "Feature", "properties": { "logzinc": 5.3471075307174685, "dist": 0.440142, "ffreq2": 1, "ffreq3": 0 }, "geometry": { "type": "Point", "coordinates": [ 5.745452, 50.975657 ] } },
{ "type": "Feature", "properties": { "logzinc": 5.2882670306945352, "dist": 0.4619, "ffreq2": 1, "ffreq3": 0 }, "geometry": { "type": "Point", "coordinates": [ 5.74355, 50.974611 ] } },
{ "type": "Feature", "properties": { "logzinc": 4.9344739331306915, "dist": 0.222701, "ffreq2": 1, "ffreq3": 0 }, "geometry": { "type": "Point", "coordinates": [ 5.740261, 50.97641 ] } },
{ "type": "Feature", "properties": { "logzinc": 5.5333894887275203, "dist": 0.103024, "ffreq2": 1, "ffreq3": 0 }, "geometry": { "type": "Point", "coordinates": [ 5.738056, 50.97674 ] } },
{ "type": "Feature", "properties": { "logzinc": 6.5553568918106651, "dist": 0.0921353, "ffreq2": 1, "ffreq3": 0 }, "geometry": { "type": "Point", "coordinates": [ 5.741016, 50.978412 ] } },
{ "type": "Feature", "properties": { "logzinc": 6.7238324408212087, "dist": 0.0484884, "ffreq2": 1, "ffreq3": 0 }, "geometry": { "type": "Point", "coordinates": [ 5.74695, 50.979787 ] } },
{ "type": "Feature", "properties": { "logzinc": 5.5683445037610966, "dist": 0.168331, "ffreq2": 1, "ffreq3": 0 }, "geometry": { "type": "Point", "coordinates": [ 5.744687, 50.978033 ] } },
{ "type": "Feature", "properties": { "logzinc": 4.9558270576012609, "dist": 0.38581, "ffreq2": 1, "ffreq3": 0 }, "geometry": { "type": "Point", "coordinates": [ 5.749731, 50.976633 ] } },
{ "type": "Feature", "properties": { "logzinc": 4.7791234931115296, "dist": 0.489064, "ffreq2": 1, "ffreq3": 0 }, "geometry": { "type": "Point", "coordinates": [ 5.74995, 50.975508 ] } },
{ "type": "Feature", "properties": { "logzinc": 5.0238805208462765, "dist": 0.57602, "ffreq2": 1, "ffreq3": 0 }, "geometry": { "type": "Point", "coordinates": [ 5.748076, 50.974417 ] } },
{ "type": "Feature", "properties": { "logzinc": 6.0282785202306979, "dist": 0.0812194, "ffreq2": 1, "ffreq3": 0 }, "geometry": { "type": "Point", "coordinates": [ 5.75551, 50.987122 ] } },
{ "type": "Feature", "properties": { "logzinc": 6.1612073216950769, "dist": 0.0373369, "ffreq2": 1, "ffreq3": 0 }, "geometry": { "type": "Point", "coordinates": [ 5.753186, 50.985026 ] } },
{ "type": "Feature", "properties": { "logzinc": 4.836281906951478, "dist": 0.771698, "ffreq2": 1, "ffreq3": 0 }, "geometry": { "type": "Point", "coordinates": [ 5.74596, 50.96957 ] } },
{ "type": "Feature", "properties": { "logzinc": 5.3471075307174685, "dist": 0.336829, "ffreq2": 1, "ffreq3": 0 }, "geometry": { "type": "Point", "coordinates": [ 5.745614, 50.97643 ] } },
{ "type": "Feature", "properties": { "logzinc": 5.393627546352362, "dist": 0.228123, "ffreq2": 0, "ffreq3": 1 }, "geometry": { "type": "Point", "coordinates": [ 5.756361, 50.984944 ] } },
{ "type": "Feature", "properties": { "logzinc": 4.8903491282217537, "dist": 0.597761, "ffreq2": 0, "ffreq3": 1 }, "geometry": { "type": "Point", "coordinates": [ 5.749784, 50.974358 ] } },
{ "type": "Feature", "properties": { "logzinc": 4.9487598903781684, "dist": 0.44558, "ffreq2": 0, "ffreq3": 1 }, "geometry": { "type": "Point", "coordinates": [ 5.741928, 50.971066 ] } },
{ "type": "Feature", "properties": { "logzinc": 5.0625950330269669, "dist": 0.396675, "ffreq2": 0, "ffreq3": 1 }, "geometry": { "type": "Point", "coordinates": [ 5.74057, 50.970324 ] } },
{ "type": "Feature", "properties": { "logzinc": 4.8598124043616719, "dist": 0.581478, "ffreq2": 0, "ffreq3": 1 }, "geometry": { "type": "Point", "coordinates": [ 5.742964, 50.968761 ] } },
{ "type": "Feature", "properties": { "logzinc": 5.3278761687895813, "dist": 0.287966, "ffreq2": 0, "ffreq3": 1 }, "geometry": { "type": "Point", "coordinates": [ 5.730532, 50.964385 ] } },
{ "type": "Feature", "properties": { "logzinc": 6.1114673395026786, "dist": 0.233596, "ffreq2": 0, "ffreq3": 1 }, "geometry": { "type": "Point", "coordinates": [ 5.729307, 50.964236 ] } },
{ "type": "Feature", "properties": { "logzinc": 5.6903594543240601, "dist": 0.364067, "ffreq2": 0, "ffreq3": 1 }, "geometry": { "type": "Point", "coordinates": [ 5.730024, 50.963083 ] } },
{ "type": "Feature", "properties": { "logzinc": 5.2417470150596426, "dist": 0.331454, "ffreq2": 0, "ffreq3": 1 }, "geometry": { "type": "Point", "coordinates": [ 5.732147, 50.959598 ] } },
{ "type": "Feature", "properties": { "logzinc": 5.0369526024136295, "dist": 0.211846, "ffreq2": 0, "ffreq3": 1 }, "geometry": { "type": "Point", "coordinates": [ 5.73528, 50.959823 ] } },
{ "type": "Feature", "properties": { "logzinc": 5.1298987149230735, "dist": 0.103029, "ffreq2": 0, "ffreq3": 1 }, "geometry": { "type": "Point", "coordinates": [ 5.736609, 50.958632 ] } },
{ "type": "Feature", "properties": { "logzinc": 5.9989365619466826, "dist": 0.070355, "ffreq2": 0, "ffreq3": 1 }, "geometry": { "type": "Point", "coordinates": [ 5.735106, 50.957441 ] } },
{ "type": "Feature", "properties": { "logzinc": 6.1548580940164177, "dist": 0.146576, "ffreq2": 0, "ffreq3": 1 }, "geometry": { "type": "Point", "coordinates": [ 5.733573, 50.958012 ] } },
{ "type": "Feature", "properties": { "logzinc": 6.4167322825123261, "dist": 0.0537723, "ffreq2": 0, "ffreq3": 1 }, "geometry": { "type": "Point", "coordinates": [ 5.732253, 50.956614 ] } },
{ "type": "Feature", "properties": { "logzinc": 6.3985949345352076, "dist": 0.119286, "ffreq2": 0, "ffreq3": 1 }, "geometry": { "type": "Point", "coordinates": [ 5.729109, 50.956794 ] } },
{ "type": "Feature", "properties": { "logzinc": 6.6631326959908028, "dist": 0.0921435, "ffreq2": 0, "ffreq3": 1 }, "geometry": { "type": "Point", "coordinates": [ 5.725728, 50.957604 ] } },
{ "type": "Feature", "properties": { "logzinc": 5.5529595849216173, "dist": 0.249863, "ffreq2": 0, "ffreq3": 1 }, "geometry": { "type": "Point", "coordinates": [ 5.7307, 50.958201 ] } },
{ "type": "Feature", "properties": { "logzinc": 5.3659760150218512, "dist": 0.37494, "ffreq2": 0, "ffreq3": 1 }, "geometry": { "type": "Point", "coordinates": [ 5.729218, 50.959931 ] } },
{ "type": "Feature", "properties": { "logzinc": 5.1119877883565437, "dist": 0.423837, "ffreq2": 0, "ffreq3": 1 }, "geometry": { "type": "Point", "coordinates": [ 5.731416, 50.960823 ] } },
{ "type": "Feature", "properties": { "logzinc": 6.2065759267249279, "dist": 0.423837, "ffreq2": 0, "ffreq3": 1 }, "geometry": { "type": "Point", "coordinates": [ 5.730015, 50.961816 ] } },
{ "type": "Feature", "properties": { "logzinc": 5.8348107370626048, "dist": 0.27709, "ffreq2": 0, "ffreq3": 1 }, "geometry": { "type": "Point", "coordinates": [ 5.727027, 50.961996 ] } },
{ "type": "Feature", "properties": { "logzinc": 5.0875963352323836, "dist": 0.358606, "ffreq2": 0, "ffreq3": 1 }, "geometry": { "type": "Point", "coordinates": [ 5.735444, 50.9626 ] } },
{ "type": "Feature", "properties": { "logzinc": 5.9269260259704106, "dist": 0.0122243, "ffreq2": 0, "ffreq3": 1 }, "geometry": { "type": "Point", "coordinates": [ 5.751955, 50.960832 ] } }
]
}
